[{"OBJECT_NAME":"ONEWEB-0342","OBJECT_ID":"2021-083Y","EPOCH":"2026-03-09T15:43:04.954080","MEAN_MOTION":13.20770626,"ECCENTRICITY":0.00016801,"INCLINATION":87.9174,"RA_OF_ASC_NODE":294.3102,"ARG_OF_PERICENTER":90.1608,"MEAN_ANOMALY":269.9717,"EPHEMERIS_TYPE":0,"CLASSIFICATION_TYPE":"U","NORAD_CAT_ID":49208,"ELEMENT_SET_NO":999,"REV_AT_EPOCH":22364,"BSTAR":-0.00039600067,"MEAN_MOTION_DOT":-1.48e-6,"MEAN_MOTION_DDOT":0},{"OBJECT_NAME":"METEOR 3-2","OBJECT_ID":"1988-064A","EPOCH":"2026-03-09T23:05:53.953728","MEAN_MOTION":13.17278782,"ECCENTRICITY":0.00183381,"INCLINATION":82.543,"RA_OF_ASC_NODE":41.0373,"ARG_OF_PERICENTER":95.0105,"MEAN_ANOMALY":320.0575,"EPHEMERIS_TYPE":0,"CLASSIFICATION_TYPE":"U","NORAD_CAT_ID":19336,"ELEMENT_SET_NO":999,"REV_AT_EPOCH":80859,"BSTAR":-0.00028263501,"MEAN_MOTION_DOT":-9.7e-7,"MEAN_MOTION_DDOT":0}]
